EUTELSAT 21B            
1 38992U 12062B   25289.56005273  .00000118  00000+0  00000+0 0  9994
2 38992   0.0832  32.1971 0002800 183.0540  33.2918  1.00273731 47382
EUTELSAT 70B            
1 39020U 12069A   25289.35560163 -.00000057  00000+0  00000+0 0  9998
2 39020   0.0684 346.0825 0004375 220.1700  17.4187  1.00273470 47062
EUTELSAT 117 WEST A     
1 39122U 13012A   25289.52961554 -.00000026  00000+0  00000+0 0  9994
2 39122   0.0067 279.8749 0002735 288.3773 250.9162  1.00270845 45992
EUTELSAT 7B             
1 39163U 13022A   25289.62851975  .00000036  00000+0  00000+0 0  9996
2 39163   0.0732  21.4799 0001820 285.5130 311.6698  1.00272759 45515
EXPRESS-AT1             
1 39612U 14010A   25289.63822645  .00000066  00000+0  00000+0 0  9999
2 39612   0.0029 188.9270 0000148  62.0416  60.2089  1.00272828 42372
EXPRESS-AT2             
1 39613U 14010B   25285.23079185 -.00000290  00000+0  00000+0 0  9995
2 39613   0.0174 228.3626 0000312 164.2420 211.3956  1.00268655 42017
EUTELSAT 3B             
1 39773U 14030A   25289.62773973  .00000007  00000+0  00000+0 0  9992
2 39773   0.0679 354.1408 0004521 206.2914  54.0728  1.00270109 41623
EUTELSAT 115 WEST B     
1 40425U 15010B   25289.60433962  .00000000  00000+0  00000+0 0  9999
2 40425   0.0061 108.8190 0000159 198.9172 180.2964  1.00270897 38952
